STARLINK-31993          
1 59961U 24107S   26068.28098294  .00000279  00000+0  21540-4 0  9991
2 59961  53.1610  67.4421 0001212  86.4352 273.6787 15.30197661 99676
TEVEL2-7                
1 63238U 25052AE  26068.66113295  .00019244  00000+0  69668-3 0  9998
2 63238  97.4054 324.3041 0008105 124.6830 235.5175 15.28414096 54803
